TIANMU-1 20             
1 58661U 23208B   26177.92098561  .00008448  00000+0  26819-3 0  9996
2 58661  97.4451 294.9166 0005584 291.3631  68.7015 15.32904149138919
TIANMU-1 21             
1 58662U 23208C   26177.95978520  .00010165  00000+0  29928-3 0  9995
2 58662  97.4511 297.6787 0005662 280.6412  79.4193 15.35243048139061
TIANMU-1 22             
1 58663U 23208D   26177.94117244  .00008165  00000+0  27359-3 0  9996
2 58663  97.4506 294.2192 0002401 320.6011  39.5055 15.31188191138827
TIANMU-1 15             
1 58700U 24004A   26177.99367807  .00006219  00000+0  23878-3 0  9990
2 58700  97.4665   4.1858 0005697 311.3117  48.7630 15.26807011137278
TIANMU-1 16             
1 58701U 24004B   26177.98421999  .00005918  00000+0  22717-3 0  9999
2 58701  97.4612   3.4031 0004872 330.8323  29.2643 15.26843679137273
TIANMU-1 17             
1 58702U 24004C   26177.96968053  .00005724  00000+0  21981-3 0  9992
2 58702  97.4640   3.8772 0004553 338.5140  21.5907 15.26842322137260
TIANMU-1 18             
1 58703U 24004D   26177.48600076  .00005643  00000+0  21648-3 0  9998
2 58703  97.4659   3.6545 0003354 326.1029  33.9995 15.26886664137197
INSAT-3DS               
1 58990U 24033A   26177.89572615 -.00000144  00000+0  00000+0 0  9997
2 58990   0.0613 100.5563 0001471 345.0778 233.9136  1.00270657 47163
METEOR-M2 4             
1 59051U 24039A   26177.96097358 -.00000001  00000+0  19140-4 0  9998
2 59051  98.7014 137.1363 0007805 134.7460 225.4354 14.22430463120658
GOES 19                 
1 60133U 24119A   26177.97000875 -.00000237  00000+0  00000+0 0  9990
2 60133   0.0065  71.0386 0000557  71.1571  46.9001  1.00271251  7062
MTG-S1                  
1 64723U 25143A   26175.74071355  .00000023  00000+0  00000+0 0  9993
2 64723   0.5970 340.6178 0000585 288.6722 269.7793  1.00400949  3493
METOP-SGA1              
1 65159U 25172A   26177.93520016  .00000039  00000+0  38803-4 0  9999
2 65159  98.6642 237.4560 0008104  25.4636 334.6938 14.19816523 45172
FENGYUN 3H              
1 65815U 25219A   26177.83585615  .00000035  00000+0  36732-4 0  9990
2 65815  98.6769 118.4174 0001512  70.5708 289.5631 14.19922004 38753
