OBJECT_NAME,OBJECT_ID,EPOCH,MEAN_MOTION,ECCENTRICITY,INCLINATION,RA_OF_ASC_NODE,ARG_OF_PERICENTER,MEAN_ANOMALY,EPHEMERIS_TYPE,CLASSIFICATION_TYPE,NORAD_CAT_ID,ELEMENT_SET_NO,REV_AT_EPOCH,BSTAR,MEAN_MOTION_DOT,MEAN_MOTION_DDOT
TIANMU-1 20,2023-208B,2026-06-26T22:06:13.156704,15.32904149,.00055849,97.4451,294.9166,291.3631,68.7015,0,U,58661,999,13891,.2681948E-3,.8448E-4,0
TIANMU-1 21,2023-208C,2026-06-26T23:02:05.441280,15.35243048,.00056626,97.4511,297.6787,280.6412,79.4193,0,U,58662,999,13906,.29927744E-3,.10165E-3,0
TIANMU-1 22,2023-208D,2026-06-26T22:35:17.298816,15.31188191,.00024014,97.4506,294.2192,320.6011,39.5055,0,U,58663,999,13882,.27358931E-3,.8165E-4,0
TIANMU-1 15,2024-004A,2026-06-26T23:50:53.785248,15.26807011,.00056978,97.4665,4.1858,311.3117,48.7630,0,U,58700,999,13727,.23877665E-3,.6219E-4,0
TIANMU-1 16,2024-004B,2026-06-26T23:37:16.607136,15.26843679,.00048725,97.4612,3.4031,330.8323,29.2643,0,U,58701,999,13727,.22716868E-3,.5918E-4,0
TIANMU-1 17,2024-004C,2026-06-26T23:16:20.397792,15.26842322,.00045531,97.4640,3.8772,338.5140,21.5907,0,U,58702,999,13726,.21980634E-3,.5724E-4,0
TIANMU-1 18,2024-004D,2026-06-26T11:39:50.465664,15.26886664,.0003354,97.4659,3.6545,326.1029,33.9995,0,U,58703,999,13719,.21648E-3,.5643E-4,0
INSAT-3DS,2024-033A,2026-06-26T21:29:50.739360,1.00270657,.00014712,0.0613,100.5563,345.0778,233.9136,0,U,58990,999,4716,0,-.144E-5,0
METEOR-M2 4,2024-039A,2026-06-26T23:03:48.117312,14.22430463,.00078057,98.7014,137.1363,134.7460,225.4354,0,U,59051,999,12065,.19140114E-4,-.1E-7,0
GOES 19,2024-119A,2026-06-26T23:16:48.756000,1.00271251,.0000557,0.0065,71.0386,71.1571,46.9001,0,U,60133,999,706,0,-.237E-5,0
MTG-S1,2025-143A,2026-06-24T17:46:37.650720,1.00400949,.00005853,0.5970,340.6178,288.6722,269.7793,0,U,64723,999,349,0,.23E-6,0
METOP-SGA1,2025-172A,2026-06-26T22:26:41.293824,14.19816523,.00081046,98.6642,237.4560,25.4636,334.6938,0,U,65159,999,4517,.38803346E-4,.39E-6,0
FENGYUN 3H,2025-219A,2026-06-26T20:03:37.971360,14.19922004,.00015122,98.6769,118.4174,70.5708,289.5631,0,U,65815,999,3875,.3673164E-4,.35E-6,0
